{
    "links": {
        "self": "http://www.neowsapp.com/rest/v1/neo/3508154?api_key=iIulBulltgU6a56xZRHN4H3l9WmuAYTsLGpBGhQ2"
    },
    "id": "3508154",
    "neo_reference_id": "3508154",
    "name": "(2010 DT1)",
    "designation": "2010 DT1",
    "nasa_jpl_url": "http://ssd.jpl.nasa.gov/sbdb.cgi?sstr=3508154",
    "absolute_magnitude_h": 23.8,
    "estimated_diameter": {
        "kilometers": {
            "estimated_diameter_min": 0.046190746,
            "estimated_diameter_max": 0.1032856481
        },
        "meters": {
            "estimated_diameter_min": 46.1907460282,
            "estimated_diameter_max": 103.2856480504
        },
        "miles": {
            "estimated_diameter_min": 0.0287015901,
            "estimated_diameter_max": 0.0641787064
        },
        "feet": {
            "estimated_diameter_min": 151.544447199,
            "estimated_diameter_max": 338.8636855496
        }
    },
    "is_potentially_hazardous_asteroid": false,
    "close_approach_data": [
        {
            "close_approach_date": "2008-02-11",
            "close_approach_date_full": "2008-Feb-11 00:12",
            "epoch_date_close_approach": 1202688720000,
            "relative_velocity": {
                "kilometers_per_second": "23.8766603144",
                "kilometers_per_hour": "85955.9771318836",
                "miles_per_hour": "53409.7014573084"
            },
            "miss_distance": {
                "astronomical": "0.2393236962",
                "lunar": "93.0969178218",
                "kilometers": "35802315.192047094",
                "miles": "22246527.0751701372"
            },
            "orbiting_body": "Earth"
        },
        {
            "close_approach_date": "2009-02-06",
            "close_approach_date_full": "2009-Feb-06 18:53",
            "epoch_date_close_approach": 1233946380000,
            "relative_velocity": {
                "kilometers_per_second": "20.6776001521",
                "kilometers_per_hour": "74439.3605476831",
                "miles_per_hour": "46253.723780309"
            },
            "miss_distance": {
                "astronomical": "0.136808836",
                "lunar": "53.218637204",
                "kilometers": "20466310.46277932",
                "miles": "12717175.618301816"
            },
            "orbiting_body": "Earth"
        },
        {
            "close_approach_date": "2010-02-04",
            "close_approach_date_full": "2010-Feb-04 23:54",
            "epoch_date_close_approach": 1265327640000,
            "relative_velocity": {
                "kilometers_per_second": "17.9256456516",
                "kilometers_per_hour": "64532.3243457528",
                "miles_per_hour": "40097.8767580596"
            },
            "miss_distance": {
                "astronomical": "0.0952170374",
                "lunar": "37.0394275486",
                "kilometers": "14244265.982750338",
                "miles": "8850976.4564491444"
            },
            "orbiting_body": "Earth"
        },
        {
            "close_approach_date": "2011-02-05",
            "close_approach_date_full": "2011-Feb-05 14:39",
            "epoch_date_close_approach": 1296916740000,
            "relative_velocity": {
                "kilometers_per_second": "15.9478080463",
                "kilometers_per_hour": "57412.1089668071",
                "miles_per_hour": "35673.6518188474"
            },
            "miss_distance": {
                "astronomical": "0.16210782",
                "lunar": "63.05994198",
                "kilometers": "24250984.5823434",
                "miles": "15068863.06700292"
            },
            "orbiting_body": "Earth"
        }
    ],
    "orbital_data": {
        "orbit_id": "6",
        "orbit_determination_date": "2017-04-06 08:58:16",
        "first_observation_date": "2010-02-18",
        "last_observation_date": "2010-02-19",
        "data_arc_in_days": 1,
        "observations_used": 25,
        "orbit_uncertainty": "9",
        "minimum_orbit_intersection": ".0933483",
        "jupiter_tisserand_invariant": "5.970",
        "epoch_osculation": "2455246.5",
        "eccentricity": ".4638534226562773",
        "semi_major_axis": ".9863318897314969",
        "inclination": "25.71915769973964",
        "ascending_node_longitude": "324.7824876996627",
        "orbital_period": "357.7939881813765",
        "perihelion_distance": ".5288184668045081",
        "perihelion_argument": "46.57060082786277",
        "aphelion_distance": "1.443845312658486",
        "perihelion_time": "2455161.161535247484",
        "mean_anomaly": "85.86462692417273",
        "mean_motion": "1.0061655921885",
        "equinox": "J2000",
        "orbit_class": {
            "orbit_class_type": "ATE",
            "orbit_class_description": "Near-Earth asteroid orbits similar to that of 2062 Aten",
            "orbit_class_range": "a (semi-major axis) < 1.0 AU; q (perihelion) > 0.983 AU"
        }
    },
    "is_sentry_object": false
}